{
  "schema": "int-temerity-real-tle-snapshot/v1",
  "source": "celestrak",
  "group": "STARLINK",
  "format": "celestrak-gp-json",
  "source_url": "https://celestrak.org/NORAD/elements/gp.php?NAME=STARLINK&FORMAT=JSON",
  "downloaded_at": "2026-06-26T09:50:33.467Z",
  "generated_at": "2026-06-26T09:50:44.363Z",
  "fingerprint": "77a8ac15",
  "shell_id": "starlink-real-43deg-490km",
  "catalog_count": 10658,
  "shell_count": 3264,
  "selected_count": 1584,
  "mean_altitude_km": 490.2,
  "mean_inclination_deg": 43.0017,
  "mean_mean_motion_rev_per_day": 15.27576648,
  "layout": {
    "planes": 72,
    "satellites_per_plane": 22,
    "selection_strategy": "largest-shell-raan-clusters-even-slot-sampling",
    "raan_cluster_threshold_deg": 1.5
  },
  "satellites": [
    {
      "satellite_id": "P43-S19",
      "norad_id": 57069,
      "satellite_name": "STARLINK-5821",
      "cospar_id": "2023-088X",
      "shell_id": "starlink-real-43deg-490km",
      "plane_id": 42,
      "slot_id": 18,
      "epoch": "2026-06-25T11:59:07.656288",
      "inclination": 43.0005,
      "raan": 207.68420000000003,
      "eccentricity": 0.0001234,
      "argument_of_perigee": 303.8254999999999,
      "mean_anomaly": 56.247900000000016,
      "mean_motion": 15.27578561,
      "bstar": 0.000012432,
      "status": "active",
      "raw_omm": {
        "OBJECT_NAME": "STARLINK-5821",
        "OBJECT_ID": "2023-088X",
        "EPOCH": "2026-06-25T11:59:07.656288",
        "MEAN_MOTION": 15.27578561,
        "ECCENTRICITY": 0.0001234,
        "INCLINATION": 43.0005,
        "RA_OF_ASC_NODE": 207.6842,
        "ARG_OF_PERICENTER": 303.8255,
        "MEAN_ANOMALY": 56.2479,
        "EPHEMERIS_TYPE": 0,
        "CLASSIFICATION_TYPE": "U",
        "NORAD_CAT_ID": 57069,
        "ELEMENT_SET_NO": 999,
        "REV_AT_EPOCH": 16681,
        "BSTAR": 0.000012432,
        "MEAN_MOTION_DOT": 8e-7,
        "MEAN_MOTION_DDOT": 0
      },
      "source": "celestrak",
      "source_url": "https://celestrak.org/NORAD/elements/gp.php?NAME=STARLINK&FORMAT=JSON",
      "catalog_fingerprint": "77a8ac15"
    },
    {
      "satellite_id": "P43-S20",
      "norad_id": 57088,
      "satellite_name": "STARLINK-6257",
      "cospar_id": "2023-088AS",
      "shell_id": "starlink-real-43deg-490km",
      "plane_id": 42,
      "slot_id": 19,
      "epoch": "2026-06-25T12:43:19.407072",
      "inclination": 43.0028,
      "raan": 207.05629999999996,
      "eccentricity": 0.0001139,
      "argument_of_perigee": 301.5567,
      "mean_anomaly": 58.51729999999998,
      "mean_motion": 15.27579649,
      "bstar": -0.0000022163,
      "status": "active",
      "raw_omm": {
        "OBJECT_NAME": "STARLINK-6257",
        "OBJECT_ID": "2023-088AS",
        "EPOCH": "2026-06-25T12:43:19.407072",
        "MEAN_MOTION": 15.27579649,
        "ECCENTRICITY": 0.0001139,
        "INCLINATION": 43.0028,
        "RA_OF_ASC_NODE": 207.0563,
        "ARG_OF_PERICENTER": 301.5567,
        "MEAN_ANOMALY": 58.5173,
        "EPHEMERIS_TYPE": 0,
        "CLASSIFICATION_TYPE": "U",
        "NORAD_CAT_ID": 57088,
        "ELEMENT_SET_NO": 999,
        "REV_AT_EPOCH": 16699,
        "BSTAR": -0.0000022163,
        "MEAN_MOTION_DOT": -0.00000323,
        "MEAN_MOTION_DDOT": 0
      },
      "source": "celestrak",
      "source_url": "https://celestrak.org/NORAD/elements/gp.php?NAME=STARLINK&FORMAT=JSON",
      "catalog_fingerprint": "77a8ac15"
    },
    {
      "satellite_id": "P43-S21",
      "norad_id": 57086,
      "satellite_name": "STARLINK-6247",
      "cospar_id": "2023-088AQ",
      "shell_id": "starlink-real-43deg-490km",
      "plane_id": 42,
      "slot_id": 20,
      "epoch": "2026-06-25T12:37:46.282368",
      "inclination": 43.0021,
      "raan": 207.03060000000005,
      "eccentricity": 0.0000952,
      "argument_of_perigee": 292.08359999999993,
      "mean_anomaly": 67.9914,
      "mean_motion": 15.27580296,
      "bstar": 0.000019398,
      "status": "active",
      "raw_omm": {
        "OBJECT_NAME": "STARLINK-6247",
        "OBJECT_ID": "2023-088AQ",
        "EPOCH": "2026-06-25T12:37:46.282368",
        "MEAN_MOTION": 15.27580296,
        "ECCENTRICITY": 0.0000952,
        "INCLINATION": 43.0021,
        "RA_OF_ASC_NODE": 207.0306,
        "ARG_OF_PERICENTER": 292.0836,
        "MEAN_ANOMALY": 67.9914,
        "EPHEMERIS_TYPE": 0,
        "CLASSIFICATION_TYPE": "U",
        "NORAD_CAT_ID": 57086,
        "ELEMENT_SET_NO": 999,
        "REV_AT_EPOCH": 16699,
        "BSTAR": 0.000019398,
        "MEAN_MOTION_DOT": 0.00000272,
        "MEAN_MOTION_DDOT": 0
      },
      "source": "celestrak",
      "source_url": "https://celestrak.org/NORAD/elements/gp.php?NAME=STARLINK&FORMAT=JSON",
      "catalog_fingerprint": "77a8ac15"
    },
    {
      "satellite_id": "P43-S22",
      "norad_id": 57094,
      "satellite_name": "STARLINK-6235",
      "cospar_id": "2023-088AY",
      "shell_id": "starlink-real-43deg-490km",
      "plane_id": 42,
      "slot_id": 21,
      "epoch": "2026-06-25T12:46:59.932704",
      "inclination": 43.0027,
      "raan": 207.0684,
      "eccentricity": 0.0000952,
      "argument_of_perigee": 316.1499,
      "mean_anomaly": 43.927700000000016,
      "mean_motion": 15.2759495,
      "bstar": 0.000065519,
      "status": "active",
      "raw_omm": {
        "OBJECT_NAME": "STARLINK-6235",
        "OBJECT_ID": "2023-088AY",
        "EPOCH": "2026-06-25T12:46:59.932704",
        "MEAN_MOTION": 15.2759495,
        "ECCENTRICITY": 0.0000952,
        "INCLINATION": 43.0027,
        "RA_OF_ASC_NODE": 207.0684,
        "ARG_OF_PERICENTER": 316.1499,
        "MEAN_ANOMALY": 43.9277,
        "EPHEMERIS_TYPE": 0,
        "CLASSIFICATION_TYPE": "U",
        "NORAD_CAT_ID": 57094,
        "ELEMENT_SET_NO": 999,
        "REV_AT_EPOCH": 16699,
        "BSTAR": 0.000065519,
        "MEAN_MOTION_DOT": 0.00001542,
        "MEAN_MOTION_DDOT": 0
      },
      "source": "celestrak",
      "source_url": "https://celestrak.org/NORAD/elements/gp.php?NAME=STARLINK&FORMAT=JSON",
      "catalog_fingerprint": "77a8ac15"
    },
    {
      "satellite_id": "P44-S01",
      "norad_id": 63416,
      "satellite_name": "STARLINK-33649",
      "cospar_id": "2025-065T",
      "shell_id": "starlink-real-43deg-490km",
      "plane_id": 43,
      "slot_id": 0,
      "epoch": "2026-06-25T12:32:07.099296",
      "inclination": 43.0003,
      "raan": 217.85709999999995,
      "eccentricity": 0.0002957,
      "argument_of_perigee": 277.5616,
      "mean_anomaly": 82.49000000000001,
      "mean_motion": 15.27605884,
      "bstar": 0.0010588,
      "status": "active",
      "raw_omm": {
        "OBJECT_NAME": "STARLINK-33649",
        "OBJECT_ID": "2025-065T",
        "EPOCH": "2026-06-25T12:32:07.099296",
        "MEAN_MOTION": 15.27605884,
        "ECCENTRICITY": 0.0002957,
        "INCLINATION": 43.0003,
        "RA_OF_ASC_NODE": 217.8571,
        "ARG_OF_PERICENTER": 277.5616,
        "MEAN_ANOMALY": 82.49,
        "EPHEMERIS_TYPE": 0,
        "CLASSIFICATION_TYPE": "U",
        "NORAD_CAT_ID": 63416,
        "ELEMENT_SET_NO": 999,
        "REV_AT_EPOCH": 6933,
        "BSTAR": 0.0010588,
        "MEAN_MOTION_DOT": 0.00029013,
        "MEAN_MOTION_DDOT": 0
      },
      "source": "celestrak",
      "source_url": "https://celestrak.org/NORAD/elements/gp.php?NAME=STARLINK&FORMAT=JSON",
      "catalog_fingerprint": "77a8ac15"
    },
    {
      "satellite_id": "P44-S02",
      "norad_id": 63407,
      "satellite_name": "STARLINK-33694",
      "cospar_id": "2025-065J",
      "shell_id": "starlink-real-43deg-490km",
      "plane_id": 43,
      "slot_id": 1,
      "epoch": "2026-06-25T12:30:15.319296",
      "inclination": 43.0014,
      "raan": 217.90269999999998,
      "eccentricity": 0.0002404,
      "argument_of_perigee": 275.4915,
      "mean_anomaly": 84.56619999999998,
      "mean_motion": 15.27614222,
      "bstar": 0.00095962,
      "status": "active",
      "raw_omm": {
        "OBJECT_NAME": "STARLINK-33694",
        "OBJECT_ID": "2025-065J",
        "EPOCH": "2026-06-25T12:30:15.319296",
        "MEAN_MOTION": 15.27614222,
        "ECCENTRICITY": 0.0002404,
        "INCLINATION": 43.0014,
        "RA_OF_ASC_NODE": 217.9027,
        "ARG_OF_PERICENTER": 275.4915,
        "MEAN_ANOMALY": 84.5662,
        "EPHEMERIS_TYPE": 0,
        "CLASSIFICATION_TYPE": "U",
        "NORAD_CAT_ID": 63407,
        "ELEMENT_SET_NO": 999,
        "REV_AT_EPOCH": 6933,
        "BSTAR": 0.00095962,
        "MEAN_MOTION_DOT": 0.00026267,
        "MEAN_MOTION_DDOT": 0
      },
      "source": "celestrak",
      "source_url": "https://celestrak.org/NORAD/elements/gp.php?NAME=STARLINK&FORMAT=JSON",
      "catalog_fingerprint": "77a8ac15"
    }
  ]
}