STARLINK-5821           
1 57069U 23088X   26176.49939417  .00000080  00000+0  12432-4 0  9999
2 57069  43.0005 207.6842 0001234 303.8255  56.2479 15.27578561166818
STARLINK-6247           
1 57086U 23088AQ  26176.52623012  .00000272  00000+0  19398-4 0  9994
2 57086  43.0021 207.0306 0000951 292.0836  67.9914 15.27580296166993
STARLINK-6257           
1 57088U 23088AS  26176.53008574 -.00000323  00000+0 -22163-5 0  9991
2 57088  43.0028 207.0563 0001139 301.5567  58.5173 15.27579649166996
STARLINK-6235           
1 57094U 23088AY  26176.53263812  .00001542  00000+0  65519-4 0  9999
2 57094  43.0027 207.0684 0000951 316.1499  43.9277 15.27594950166998
STARLINK-33694          
1 63407U 25065J   26176.52101064  .00026267  00000+0  95962-3 0  9995
2 63407  43.0014 217.9027 0002404 275.4915  84.5662 15.27614222 69339
STARLINK-33649          
1 63416U 25065T   26176.52230439  .00029013  00000+0  10588-2 0  9996
2 63416  43.0003 217.8571 0002957 277.5616  82.4900 15.27605884 69330
